{
  "norad_id": 54805,
  "name": "STARLINK-5417",
  "history": [
    {
      "epoch": "2026-04-13T01:38:30.669792Z",
      "apogee_km": 540.6219455906903,
      "perigee_km": 538.8798830561063,
      "latitude_deg": 4.8061615158660996e-05,
      "longitude_deg": 8.606247209588853,
      "height_km": 540.6519265366248,
      "semi_major_axis_km": 6917.887914323398,
      "eccentricity": 0.00012591,
      "inclination_deg": 53.2168,
      "raan_deg": 234.4985,
      "arg_perigee_deg": 90.3446,
      "mean_anomaly_deg": 269.7691,
      "mean_motion_rev_day": 15.08837538
    },
    {
      "epoch": "2026-04-14T14:12:20.602368Z",
      "apogee_km": 540.2781233654287,
      "perigee_km": 539.0868748476823,
      "latitude_deg": 1.959026253825159e-05,
      "longitude_deg": 171.80635029345058,
      "height_km": 540.568516712484,
      "semi_major_axis_km": 6917.819499106555,
      "eccentricity": 8.61e-05,
      "inclination_deg": 53.2151,
      "raan_deg": 227.6583,
      "arg_perigee_deg": 89.0261,
      "mean_anomaly_deg": 271.083,
      "mean_motion_rev_day": 15.08859921
    },
    {
      "epoch": "2026-04-15T07:41:37.642848Z",
      "apogee_km": 540.4420581810455,
      "perigee_km": 539.1497883109841,
      "latitude_deg": 3.076715790170675e-05,
      "longitude_deg": -94.50575152287627,
      "height_km": 540.8791607006905,
      "semi_major_axis_km": 6917.932923246015,
      "eccentricity": 9.34e-05,
      "inclination_deg": 53.2171,
      "raan_deg": 224.3854,
      "arg_perigee_deg": 106.8179,
      "mean_anomaly_deg": 253.2916,
      "mean_motion_rev_day": 15.08822813
    },
    {
      "epoch": "2026-04-16T13:53:56.747328Z",
      "apogee_km": 540.4428193708363,
      "perigee_km": 539.0454073859346,
      "latitude_deg": 3.295942210628747e-05,
      "longitude_deg": 165.52686269262074,
      "height_km": 540.6869812406464,
      "semi_major_axis_km": 6917.881113378386,
      "eccentricity": 0.000101,
      "inclination_deg": 53.2152,
      "raan_deg": 218.7381,
      "arg_perigee_deg": 93.8506,
      "mean_anomaly_deg": 266.2602,
      "mean_motion_rev_day": 15.08839763
    },
    {
      "epoch": "2026-04-17T16:55:30.468864Z",
      "apogee_km": 540.4953329153968,
      "perigee_km": 539.0644309875333,
      "latitude_deg": -1.9206036530133843e-06,
      "longitude_deg": 113.97141220121037,
      "height_km": 540.748579613423,
      "semi_major_axis_km": 6917.916881951464,
      "eccentricity": 0.00010342,
      "inclination_deg": 53.216,
      "raan_deg": 213.6831,
      "arg_perigee_deg": 95.8317,
      "mean_anomaly_deg": 264.2793,
      "mean_motion_rev_day": 15.08828061
    },
    {
      "epoch": "2026-04-18T13:35:30.983712Z",
      "apogee_km": 540.4528008418974,
      "perigee_km": 539.0498530891891,
      "latitude_deg": -7.709718871812663e-06,
      "longitude_deg": 159.25520731883338,
      "height_km": 540.6909876648091,
      "semi_major_axis_km": 6917.8883269655435,
      "eccentricity": 0.0001014,
      "inclination_deg": 53.2161,
      "raan_deg": 209.8178,
      "arg_perigee_deg": 93.5651,
      "mean_anomaly_deg": 266.5457,
      "mean_motion_rev_day": 15.08837403
    },
    {
      "epoch": "2026-04-19T13:26:17.730816Z",
      "apogee_km": 540.4402003539435,
      "perigee_km": 539.0234208215352,
      "latitude_deg": -3.231395486716228e-05,
      "longitude_deg": 156.12077520933434,
      "height_km": 540.652031022488,
      "semi_major_axis_km": 6917.868810587739,
      "eccentricity": 0.0001024,
      "inclination_deg": 53.2165,
      "raan_deg": 205.3575,
      "arg_perigee_deg": 91.9533,
      "mean_anomaly_deg": 268.1576,
      "mean_motion_rev_day": 15.08843788
    },
    {
      "epoch": "2026-04-20T13:17:05.876736Z",
      "apogee_km": 540.8007256249275,
      "perigee_km": 538.7176087310672,
      "latitude_deg": 4.532602966421391e-06,
      "longitude_deg": 152.98084336376982,
      "height_km": 540.7511085285872,
      "semi_major_axis_km": 6917.896167177997,
      "eccentricity": 0.00015056,
      "inclination_deg": 53.2175,
      "raan_deg": 200.8975,
      "arg_perigee_deg": 95.3118,
      "mean_anomaly_deg": 264.8046,
      "mean_motion_rev_day": 15.08834838
    },
    {
      "epoch": "2026-04-21T13:07:52.908096Z",
      "apogee_km": 540.4894922409112,
      "perigee_km": 539.0145982964596,
      "latitude_deg": -1.959995831374846e-05,
      "longitude_deg": 149.8446222504248,
      "height_km": 540.6676099308726,
      "semi_major_axis_km": 6917.889045268685,
      "eccentricity": 0.0001066,
      "inclination_deg": 53.2171,
      "raan_deg": 196.4366,
      "arg_perigee_deg": 91.5142,
      "mean_anomaly_deg": 268.5972,
      "mean_motion_rev_day": 15.08837168
    },
    {
      "epoch": "2026-04-22T11:23:16.530432Z",
      "apogee_km": 540.4711032980067,
      "perigee_km": 539.0360560761565,
      "latitude_deg": 1.9692681386437257e-05,
      "longitude_deg": 170.91897821482596,
      "height_km": 540.6071133320061,
      "semi_major_axis_km": 6917.890579687081,
      "eccentricity": 0.00010372,
      "inclination_deg": 53.2167,
      "raan_deg": 192.2734,
      "arg_perigee_deg": 86.6013,
      "mean_anomaly_deg": 273.5098,
      "mean_motion_rev_day": 15.08836666
    },
    {
      "epoch": "2026-04-23T11:14:03.786432Z",
      "apogee_km": 540.4809208961697,
      "perigee_km": 539.0101790660447,
      "latitude_deg": 3.1553114000545645e-05,
      "longitude_deg": 167.7825456121257,
      "height_km": 540.5890676006389,
      "semi_major_axis_km": 6917.882549981107,
      "eccentricity": 0.0001063,
      "inclination_deg": 53.2167,
      "raan_deg": 187.8132,
      "arg_perigee_deg": 85.9045,
      "mean_anomaly_deg": 274.2069,
      "mean_motion_rev_day": 15.08839293
    },
    {
      "epoch": "2026-04-24T15:50:59.771328Z",
      "apogee_km": 540.4631228787048,
      "perigee_km": 538.9979185378179,
      "latitude_deg": 4.3215622666769056e-05,
      "longitude_deg": 92.02058340876226,
      "height_km": 540.6287935996717,
      "semi_major_axis_km": 6917.867520708261,
      "eccentricity": 0.0001059,
      "inclination_deg": 53.2157,
      "raan_deg": 182.4597,
      "arg_perigee_deg": 90.1831,
      "mean_anomaly_deg": 269.9283,
      "mean_motion_rev_day": 15.0884421
    },
    {
      "epoch": "2026-04-25T15:41:47.042016Z",
      "apogee_km": 540.5165074920733,
      "perigee_km": 538.9710529257745,
      "latitude_deg": 1.8259873579207866e-07,
      "longitude_deg": 88.8835503863769,
      "height_km": 540.6087261797124,
      "semi_major_axis_km": 6917.880780208924,
      "eccentricity": 0.0001117,
      "inclination_deg": 53.2157,
      "raan_deg": 177.999,
      "arg_perigee_deg": 87.7072,
      "mean_anomaly_deg": 272.4048,
      "mean_motion_rev_day": 15.08839872
    },
    {
      "epoch": "2026-04-26T20:18:44.042976Z",
      "apogee_km": 540.51476563897,
      "perigee_km": 539.0254785937204,
      "latitude_deg": -3.385316200107016e-05,
      "longitude_deg": 13.118411001689003,
      "height_km": 540.650959164039,
      "semi_major_axis_km": 6917.907122116345,
      "eccentricity": 0.00010764,
      "inclination_deg": 53.2155,
      "raan_deg": 172.6466,
      "arg_perigee_deg": 88.8414,
      "mean_anomaly_deg": 271.2701,
      "mean_motion_rev_day": 15.08831254
    },
    {
      "epoch": "2026-04-27T13:47:58.284096Z",
      "apogee_km": 540.5165921672442,
      "perigee_km": 538.9725210038141,
      "latitude_deg": -6.337730465965954e-06,
      "longitude_deg": 106.81991657119067,
      "height_km": 540.5495375700605,
      "semi_major_axis_km": 6917.881556585528,
      "eccentricity": 0.0001116,
      "inclination_deg": 53.2155,
      "raan_deg": 169.3756,
      "arg_perigee_deg": 83.2405,
      "mean_anomaly_deg": 276.8714,
      "mean_motion_rev_day": 15.08839618
    },
    {
      "epoch": "2026-04-28T12:03:22.787712Z",
      "apogee_km": 540.5577280965108,
      "perigee_km": 538.96522786688,
      "latitude_deg": -3.0045160391182335e-05,
      "longitude_deg": 127.89054668255213,
      "height_km": 540.5337723088368,
      "semi_major_axis_km": 6917.898477981696,
      "eccentricity": 0.0001151,
      "inclination_deg": 53.2157,
      "raan_deg": 165.2124,
      "arg_perigee_deg": 81.0743,
      "mean_anomaly_deg": 279.0379,
      "mean_motion_rev_day": 15.08834082
    },
    {
      "epoch": "2026-04-29T10:18:46.696032Z",
      "apogee_km": 540.5645047334019,
      "perigee_km": 538.9322988517033,
      "latitude_deg": 1.1672679571357945e-05,
      "longitude_deg": 148.96411238979513,
      "height_km": 540.5265366270357,
      "semi_major_axis_km": 6917.885401792552,
      "eccentricity": 0.00011797,
      "inclination_deg": 53.2162,
      "raan_deg": 161.0496,
      "arg_perigee_deg": 81.7072,
      "mean_anomaly_deg": 278.4054,
      "mean_motion_rev_day": 15.0883836
    },
    {
      "epoch": "2026-04-30T11:44:53.536128Z",
      "apogee_km": 540.5773244634138,
      "perigee_km": 538.6496241162477,
      "latitude_deg": 1.0120330035473437e-05,
      "longitude_deg": 121.63272283538062,
      "height_km": 540.3270234757321,
      "semi_major_axis_km": 6917.75047428983,
      "eccentricity": 0.00013933,
      "inclination_deg": 53.2162,
      "raan_deg": 156.2913,
      "arg_perigee_deg": 79.1135,
      "mean_anomaly_deg": 281.0014,
      "mean_motion_rev_day": 15.08882504
    },
    {
      "epoch": "2026-05-02T08:15:44.532288Z",
      "apogee_km": 541.234733734279,
      "perigee_km": 538.5380882086811,
      "latitude_deg": -3.542959201296538e-05,
      "longitude_deg": 163.765370796182,
      "height_km": 540.800098172352,
      "semi_major_axis_km": 6918.023410971479,
      "eccentricity": 0.0001949,
      "inclination_deg": 53.2179,
      "raan_deg": 147.9646,
      "arg_perigee_deg": 90.7981,
      "mean_anomaly_deg": 269.3234,
      "mean_motion_rev_day": 15.0879321
    }
  ]
}